{"type":"FeatureCollection","bron":"geodata.antwerpen.be, portal_publiek2 laag 109 (districtsgrenzen), vereenvoudigd tot ongeveer 20 m, opgehaald 2026-10-10","features":[{"type":"Feature","properties":{"naam":"Antwerpen"},"geometry":{"type":"Polygon","coordinates":[[[4.35505,51.31341],[4.35487,51.31363],[4.35095,51.3135],[4.34576,51.31118],[4.34165,51.31114],[4.34044,51.3103],[4.34186,51.30886],[4.34117,51.30835],[4.33993,51.3083],[4.33729,51.30735],[4.33392,51.30707],[4.32399,51.30444],[4.31737,51.30333],[4.31529,51.30245],[4.31376,51.29838],[4.30953,51.29212],[4.31735,51.28826],[4.3195,51.28563],[4.3195,51.28229],[4.31702,51.27756],[4.30189,51.26402],[4.30079,51.26237],[4.30109,51.26018],[4.30349,51.25638],[4.305,51.25501],[4.3068,51.25402],[4.31003,51.25324],[4.31936,51.25261],[4.32584,51.25145],[4.33272,51.24894],[4.3447,51.2428],[4.35227,51.24],[4.34847,51.23782],[4.34518,51.23639],[4.3457,51.23536],[4.34382,51.23532],[4.34309,51.23494],[4.34237,51.2336],[4.34087,51.23299],[4.34021,51.23197],[4.34031,51.23114],[4.33853,51.23034],[4.33812,51.22983],[4.34137,51.22996],[4.34137,51.22744],[4.34284,51.22546],[4.34234,51.22542],[4.34383,51.22347],[4.34525,51.22289],[4.34516,51.22173],[4.34605,51.22053],[4.34594,51.22014],[4.34833,51.2186],[4.34847,51.21711],[4.34492,51.21591],[4.34996,51.2123],[4.35048,51.21099],[4.35384,51.20609],[4.35725,51.20181],[4.34678,51.1993],[4.34306,51.19796],[4.33959,51.19624],[4.34245,51.19353],[4.34911,51.19551],[4.34879,51.19578],[4.35017,51.19631],[4.35107,51.19522],[4.35257,51.1957],[4.35386,51.19443],[4.35394,51.19177],[4.35731,51.18879],[4.35895,51.18993],[4.36045,51.1901],[4.36195,51.18896],[4.3695,51.19197],[4.36916,51.19014],[4.37013,51.18989],[4.38247,51.18154],[4.38357,51.1811],[4.38441,51.18147],[4.38422,51.18115],[4.38534,51.18039],[4.38511,51.18021],[4.38642,51.1795],[4.38935,51.18185],[4.39021,51.18179],[4.39034,51.18216],[4.3918,51.18135],[4.39473,51.18397],[4.39626,51.18377],[4.39687,51.18217],[4.39811,51.18051],[4.39944,51.17911],[4.40075,51.17839],[4.4055,51.17691],[4.41371,51.17563],[4.41839,51.17546],[4.42123,51.17937],[4.42228,51.18037],[4.42249,51.18353],[4.41931,51.18609],[4.41686,51.18761],[4.41377,51.19047],[4.41192,51.19156],[4.41214,51.19314],[4.41037,51.19739],[4.4106,51.19818],[4.41647,51.19948],[4.42235,51.20021],[4.4236,51.20108],[4.42556,51.2013],[4.42735,51.20099],[4.4287,51.20036],[4.43132,51.20032],[4.4298,51.20223],[4.4298,51.20366],[4.43198,51.20551],[4.43665,51.20744],[4.44018,51.20626],[4.44433,51.20548],[4.44405,51.20644],[4.44294,51.20636],[4.44254,51.20721],[4.44168,51.20753],[4.44243,51.20818],[4.43184,51.2092],[4.42714,51.21018],[4.42773,51.21143],[4.42751,51.21289],[4.42778,51.21356],[4.42651,51.2157],[4.4302,51.21799],[4.43087,51.21784],[4.43604,51.21968],[4.43737,51.21994],[4.43752,51.21961],[4.43804,51.21974],[4.43791,51.22008],[4.44133,51.2241],[4.44232,51.22575],[4.44329,51.22621],[4.4428,51.22649],[4.44305,51.22675],[4.4426,51.22704],[4.44218,51.22846],[4.44273,51.23004],[4.44162,51.22998],[4.43592,51.23395],[4.43208,51.23578],[4.43165,51.23658],[4.431,51.23686],[4.42892,51.23665],[4.42628,51.24046],[4.42534,51.24075],[4.42483,51.2473],[4.42493,51.25121],[4.42544,51.25414],[4.42861,51.26405],[4.41797,51.26455],[4.41476,51.26521],[4.41168,51.26631],[4.40938,51.26755],[4.40724,51.26927],[4.40551,51.27149],[4.4047,51.27362],[4.40239,51.27354],[4.4012,51.27638],[4.38591,51.27654],[4.38674,51.28421],[4.38727,51.28567],[4.38827,51.28657],[4.39077,51.28726],[4.39962,51.28736],[4.40901,51.28794],[4.40807,51.29011],[4.40583,51.29272],[4.40198,51.29511],[4.3971,51.29692],[4.39743,51.29707],[4.35938,51.31039],[4.35716,51.31164],[4.35505,51.31341]]]}},{"type":"Feature","properties":{"naam":"Berchem"},"geometry":{"type":"Polygon","coordinates":[[[4.44765,51.18954],[4.4492,51.18945],[4.44903,51.19041],[4.4497,51.19124],[4.44943,51.19135],[4.45035,51.19208],[4.45174,51.19486],[4.44946,51.19462],[4.44803,51.19512],[4.44705,51.19648],[4.44723,51.19816],[4.44607,51.19839],[4.44598,51.20057],[4.44376,51.20063],[4.44414,51.20114],[4.44454,51.20303],[4.44414,51.20404],[4.4444,51.20442],[4.44433,51.20548],[4.44018,51.20626],[4.43665,51.20744],[4.43198,51.20551],[4.4298,51.20366],[4.4298,51.20223],[4.43132,51.20032],[4.4287,51.20036],[4.42735,51.20099],[4.42556,51.2013],[4.4236,51.20108],[4.42235,51.20021],[4.41647,51.19948],[4.4106,51.19818],[4.41037,51.19739],[4.41214,51.19314],[4.41192,51.19156],[4.41377,51.19047],[4.41686,51.18761],[4.41931,51.18609],[4.42249,51.18353],[4.42228,51.18037],[4.42389,51.18021],[4.42436,51.1795],[4.4262,51.17958],[4.4269,51.17924],[4.42815,51.17971],[4.42998,51.17821],[4.43149,51.17786],[4.43295,51.17699],[4.43498,51.17795],[4.43644,51.17675],[4.43793,51.17786],[4.43914,51.17839],[4.44066,51.17849],[4.44219,51.17957],[4.44269,51.1814],[4.44466,51.18299],[4.44369,51.18448],[4.44417,51.18713],[4.44569,51.18845],[4.44637,51.1895],[4.44765,51.18954]]]}},{"type":"Feature","properties":{"naam":"Berendrecht-Zandvliet-Lillo"},"geometry":{"type":"Polygon","coordinates":[[[4.33524,51.37542],[4.3345,51.37764],[4.30602,51.37703],[4.21758,51.37389],[4.21993,51.36832],[4.22207,51.36451],[4.22675,51.35976],[4.24205,51.35397],[4.26195,51.34136],[4.27091,51.3316],[4.27567,51.30986],[4.28143,51.30175],[4.30762,51.29306],[4.30953,51.29212],[4.31376,51.29838],[4.31529,51.30245],[4.31619,51.30298],[4.32399,51.30444],[4.33392,51.30707],[4.33729,51.30735],[4.33993,51.3083],[4.34117,51.30835],[4.34186,51.30886],[4.34044,51.3103],[4.34165,51.31114],[4.34576,51.31118],[4.35095,51.3135],[4.35487,51.31363],[4.35425,51.31457],[4.35382,51.31719],[4.35152,51.31999],[4.35152,51.321],[4.35038,51.3255],[4.34953,51.32539],[4.34884,51.32755],[4.34726,51.33034],[4.33924,51.33576],[4.32969,51.33498],[4.32818,51.33622],[4.32617,51.33584],[4.3264,51.33627],[4.36817,51.35607],[4.36757,51.35687],[4.36674,51.35727],[4.35087,51.35826],[4.3508,51.35867],[4.34889,51.35868],[4.34365,51.35771],[4.34111,51.3576],[4.33524,51.37542]]]}},{"type":"Feature","properties":{"naam":"Borgerhout"},"geometry":{"type":"Polygon","coordinates":[[[4.44285,51.22731],[4.4426,51.22704],[4.44305,51.22675],[4.4428,51.22649],[4.44329,51.22621],[4.44232,51.22575],[4.44133,51.2241],[4.43791,51.22008],[4.43804,51.21974],[4.43752,51.21961],[4.43737,51.21994],[4.43604,51.21968],[4.43087,51.21784],[4.4302,51.21799],[4.42651,51.2157],[4.42778,51.21356],[4.42751,51.21289],[4.42773,51.21143],[4.42714,51.21018],[4.43184,51.2092],[4.44243,51.20818],[4.44168,51.20753],[4.44254,51.20721],[4.44294,51.20636],[4.44405,51.20644],[4.44432,51.20562],[4.4444,51.20442],[4.44414,51.20404],[4.44454,51.20303],[4.44414,51.20114],[4.44376,51.20063],[4.44598,51.20057],[4.44607,51.19839],[4.44723,51.19816],[4.44705,51.19648],[4.44732,51.19579],[4.44879,51.19477],[4.45174,51.19486],[4.4542,51.19421],[4.45675,51.19742],[4.45728,51.19763],[4.45711,51.19939],[4.4573,51.20009],[4.45769,51.20011],[4.4576,51.20086],[4.4571,51.20108],[4.45548,51.20147],[4.45477,51.20113],[4.45311,51.20208],[4.45345,51.20296],[4.45398,51.20332],[4.4526,51.20467],[4.45306,51.20635],[4.45292,51.20815],[4.45362,51.21026],[4.4531,51.21046],[4.45312,51.21076],[4.45563,51.2114],[4.45731,51.21309],[4.45698,51.21329],[4.45818,51.21421],[4.45674,51.21572],[4.45591,51.21574],[4.45654,51.21657],[4.45681,51.21778],[4.45576,51.21804],[4.45564,51.21845],[4.45375,51.21954],[4.45228,51.22149],[4.45205,51.22259],[4.45014,51.22335],[4.44824,51.22542],[4.44655,51.22549],[4.44681,51.2265],[4.44285,51.22731]]]}},{"type":"Feature","properties":{"naam":"Borsbeek"},"geometry":{"type":"Polygon","coordinates":[[[4.48354,51.20314],[4.48222,51.20383],[4.47783,51.2021],[4.47681,51.20131],[4.47517,51.20098],[4.47522,51.19949],[4.47054,51.19933],[4.47018,51.19865],[4.47064,51.19831],[4.47044,51.19796],[4.47274,51.19737],[4.47305,51.19722],[4.47272,51.19671],[4.47388,51.19642],[4.47341,51.19583],[4.47397,51.19567],[4.4728,51.19251],[4.47447,51.19211],[4.47539,51.19238],[4.47587,51.19092],[4.47293,51.19012],[4.47001,51.18857],[4.47293,51.18672],[4.47542,51.18709],[4.47663,51.18798],[4.47913,51.18607],[4.47972,51.18476],[4.4817,51.18402],[4.48198,51.18184],[4.48246,51.18084],[4.48373,51.18086],[4.48393,51.18059],[4.48537,51.18059],[4.48857,51.18129],[4.49098,51.18226],[4.4939,51.18215],[4.49865,51.18371],[4.5022,51.18412],[4.50351,51.18381],[4.5067,51.18531],[4.50907,51.19012],[4.50213,51.18875],[4.50238,51.19177],[4.49972,51.19179],[4.49984,51.1959],[4.49666,51.19679],[4.49143,51.19907],[4.4862,51.20187],[4.48458,51.20307],[4.48354,51.20314]]]}},{"type":"Feature","properties":{"naam":"Deurne"},"geometry":{"type":"Polygon","coordinates":[[[4.46769,51.23865],[4.46695,51.2388],[4.46429,51.2383],[4.46386,51.2386],[4.46177,51.23791],[4.45958,51.23808],[4.45889,51.23857],[4.44268,51.23515],[4.44302,51.23335],[4.44273,51.23004],[4.44218,51.22846],[4.44268,51.22735],[4.44681,51.2265],[4.44655,51.22549],[4.44824,51.22542],[4.45014,51.22335],[4.45205,51.22259],[4.45228,51.22149],[4.45375,51.21954],[4.45564,51.21845],[4.45576,51.21804],[4.45681,51.21778],[4.45654,51.21657],[4.45591,51.21574],[4.45674,51.21572],[4.45818,51.21421],[4.45698,51.21329],[4.45731,51.21309],[4.45563,51.2114],[4.45312,51.21076],[4.4531,51.21046],[4.45362,51.21026],[4.45292,51.20815],[4.45306,51.20635],[4.4526,51.20467],[4.45398,51.20332],[4.45345,51.20296],[4.45311,51.20208],[4.45477,51.20113],[4.45548,51.20147],[4.4576,51.20086],[4.45769,51.20011],[4.4573,51.20009],[4.45711,51.19939],[4.45728,51.19763],[4.45675,51.19742],[4.4542,51.19421],[4.45174,51.19486],[4.45035,51.19208],[4.44943,51.19135],[4.4497,51.19124],[4.44903,51.19041],[4.44926,51.18803],[4.45008,51.18631],[4.4505,51.18606],[4.45013,51.18591],[4.45203,51.18593],[4.45511,51.18443],[4.4557,51.18467],[4.45775,51.18454],[4.45923,51.18494],[4.46267,51.18813],[4.46839,51.18684],[4.46832,51.18591],[4.47211,51.18609],[4.47297,51.1867],[4.47001,51.18857],[4.47293,51.19012],[4.47556,51.19075],[4.47587,51.19092],[4.47577,51.19152],[4.47539,51.19238],[4.47447,51.19211],[4.4728,51.19251],[4.47397,51.19567],[4.47341,51.19583],[4.47388,51.19642],[4.47272,51.19671],[4.47305,51.19722],[4.47274,51.19737],[4.47044,51.19796],[4.47064,51.19831],[4.47026,51.19841],[4.47023,51.1989],[4.47054,51.19933],[4.47522,51.19949],[4.47517,51.20098],[4.4767,51.20127],[4.47932,51.20272],[4.48222,51.20383],[4.48259,51.20372],[4.48327,51.20447],[4.48399,51.20449],[4.48463,51.20496],[4.48474,51.20525],[4.48441,51.20544],[4.48481,51.20629],[4.4855,51.20668],[4.48478,51.20726],[4.48544,51.20799],[4.48493,51.20822],[4.48551,51.20845],[4.48473,51.20871],[4.48497,51.20936],[4.4831,51.21023],[4.4842,51.2113],[4.48417,51.21251],[4.48474,51.21293],[4.48459,51.21335],[4.48378,51.21354],[4.48524,51.21395],[4.48563,51.21372],[4.48596,51.21404],[4.48683,51.2141],[4.48688,51.21437],[4.48881,51.21418],[4.48846,51.21472],[4.48996,51.21494],[4.48996,51.21536],[4.49057,51.21567],[4.49355,51.21553],[4.49473,51.21576],[4.49548,51.21628],[4.49578,51.21725],[4.49475,51.21846],[4.49586,51.21878],[4.49535,51.21976],[4.4972,51.22052],[4.49797,51.2213],[4.49639,51.22765],[4.48904,51.22681],[4.48387,51.2256],[4.48403,51.22723],[4.48592,51.23253],[4.48734,51.23441],[4.48132,51.23804],[4.48106,51.23789],[4.48036,51.23838],[4.47925,51.23809],[4.47826,51.23736],[4.47434,51.2373],[4.47322,51.23698],[4.47086,51.23737],[4.46789,51.2383],[4.46769,51.23865]]]}},{"type":"Feature","properties":{"naam":"Ekeren"},"geometry":{"type":"Polygon","coordinates":[[[4.41698,51.30671],[4.41405,51.30524],[4.41272,51.30423],[4.41002,51.3031],[4.41056,51.30216],[4.40457,51.30002],[4.40237,51.29851],[4.3971,51.29692],[4.40198,51.29511],[4.4046,51.2937],[4.40753,51.29094],[4.40901,51.28794],[4.39962,51.28736],[4.39077,51.28726],[4.38848,51.28668],[4.3873,51.28572],[4.38674,51.28421],[4.38591,51.27654],[4.4012,51.27638],[4.40239,51.27354],[4.4047,51.27362],[4.40517,51.27215],[4.40641,51.27018],[4.40938,51.26755],[4.41333,51.26565],[4.41847,51.26448],[4.4297,51.2641],[4.43407,51.26505],[4.43982,51.2655],[4.44771,51.26724],[4.46098,51.26824],[4.45329,51.27922],[4.45284,51.28037],[4.44019,51.29756],[4.43909,51.29771],[4.43257,51.29405],[4.43103,51.29509],[4.42928,51.29458],[4.42835,51.29473],[4.42649,51.29343],[4.42437,51.29263],[4.42446,51.29608],[4.42286,51.2997],[4.42121,51.29946],[4.41845,51.30587],[4.41757,51.30675],[4.41698,51.30671]]]}},{"type":"Feature","properties":{"naam":"Hoboken"},"geometry":{"type":"Polygon","coordinates":[[[4.35017,51.1963],[4.34879,51.19578],[4.34911,51.19551],[4.34245,51.19353],[4.33959,51.19624],[4.3353,51.19345],[4.33299,51.19098],[4.33033,51.18657],[4.32871,51.18232],[4.32799,51.17815],[4.32805,51.17369],[4.32977,51.16167],[4.33403,51.16162],[4.33428,51.16091],[4.33571,51.16036],[4.33602,51.15964],[4.34141,51.15858],[4.34218,51.15766],[4.34389,51.15688],[4.34898,51.15547],[4.35251,51.15618],[4.35162,51.15703],[4.35302,51.15777],[4.35356,51.15842],[4.35556,51.1616],[4.35547,51.16213],[4.35675,51.16345],[4.35774,51.1639],[4.35956,51.16404],[4.3602,51.16499],[4.36121,51.16498],[4.36409,51.16694],[4.36961,51.16867],[4.37021,51.16923],[4.37026,51.17],[4.3714,51.17103],[4.37255,51.17138],[4.37437,51.17263],[4.374,51.17341],[4.37447,51.17423],[4.37402,51.1753],[4.37412,51.17586],[4.37341,51.17619],[4.37257,51.17756],[4.37279,51.17911],[4.37312,51.17955],[4.37282,51.18003],[4.37316,51.18047],[4.37313,51.18184],[4.37363,51.1824],[4.37336,51.18325],[4.37369,51.18365],[4.37601,51.18366],[4.37628,51.18431],[4.37842,51.18436],[4.37013,51.18989],[4.36916,51.19014],[4.3695,51.19197],[4.36195,51.18896],[4.36045,51.1901],[4.35895,51.18993],[4.35731,51.18879],[4.35394,51.19177],[4.35368,51.19477],[4.35257,51.1957],[4.35107,51.19522],[4.35017,51.1963]]]}},{"type":"Feature","properties":{"naam":"Merksem"},"geometry":{"type":"Polygon","coordinates":[[[4.46101,51.26819],[4.44771,51.26724],[4.43914,51.26538],[4.43407,51.26505],[4.4308,51.26425],[4.42861,51.26405],[4.42544,51.25414],[4.42493,51.25121],[4.42483,51.2473],[4.42534,51.24075],[4.42628,51.24046],[4.42892,51.23665],[4.431,51.23686],[4.43165,51.23658],[4.43208,51.23578],[4.43592,51.23395],[4.44162,51.22998],[4.44273,51.23004],[4.44302,51.23335],[4.44268,51.23515],[4.45757,51.23831],[4.45677,51.2391],[4.45674,51.24059],[4.45595,51.2415],[4.45529,51.24347],[4.4566,51.24476],[4.45602,51.24569],[4.45987,51.24691],[4.45942,51.2476],[4.46624,51.25006],[4.46381,51.25399],[4.46442,51.2546],[4.46408,51.2547],[4.46426,51.25491],[4.46346,51.2575],[4.46405,51.26042],[4.46275,51.26737],[4.46101,51.26819]]]}},{"type":"Feature","properties":{"naam":"Wilrijk"},"geometry":{"type":"Polygon","coordinates":[[[4.37951,51.18364],[4.37842,51.18436],[4.37628,51.18431],[4.37601,51.18366],[4.37369,51.18365],[4.37336,51.18325],[4.37363,51.1824],[4.37313,51.18184],[4.37316,51.18047],[4.37282,51.18003],[4.37312,51.17955],[4.37279,51.17911],[4.37257,51.17756],[4.37341,51.17619],[4.37412,51.17586],[4.37402,51.1753],[4.37447,51.17423],[4.374,51.17341],[4.37446,51.17272],[4.37406,51.17234],[4.3714,51.17103],[4.37026,51.17],[4.37021,51.16923],[4.36961,51.16867],[4.36409,51.16694],[4.36121,51.16498],[4.3602,51.16499],[4.35956,51.16404],[4.35774,51.1639],[4.35675,51.16345],[4.35547,51.16213],[4.35556,51.1616],[4.35356,51.15842],[4.35302,51.15777],[4.35162,51.15703],[4.35251,51.15618],[4.34898,51.15547],[4.35183,51.14989],[4.3538,51.14796],[4.35693,51.14811],[4.3575,51.14872],[4.35803,51.14808],[4.35894,51.14881],[4.35986,51.14798],[4.36043,51.14805],[4.36008,51.14866],[4.36139,51.14921],[4.3617,51.14905],[4.36237,51.14953],[4.36551,51.14556],[4.36844,51.14338],[4.36926,51.14332],[4.36993,51.14344],[4.37094,51.1443],[4.37186,51.14401],[4.37259,51.14494],[4.3732,51.14485],[4.37441,51.14552],[4.37558,51.14491],[4.37573,51.14525],[4.3772,51.1454],[4.37702,51.14571],[4.37779,51.1459],[4.37755,51.14628],[4.37922,51.14656],[4.3787,51.14688],[4.37982,51.1472],[4.38009,51.14755],[4.38209,51.14765],[4.38267,51.14729],[4.3838,51.14792],[4.38483,51.14774],[4.38551,51.14805],[4.3855,51.14871],[4.386,51.14917],[4.38674,51.14926],[4.38699,51.14963],[4.38792,51.14883],[4.38857,51.14919],[4.38918,51.14869],[4.38988,51.14899],[4.39033,51.14844],[4.39164,51.14824],[4.39093,51.14772],[4.39179,51.14792],[4.39241,51.14739],[4.39285,51.14762],[4.39316,51.1474],[4.39352,51.14755],[4.39336,51.14787],[4.39428,51.14819],[4.39371,51.14889],[4.39372,51.14949],[4.39972,51.15108],[4.39931,51.15198],[4.39764,51.15287],[4.39701,51.15374],[4.39807,51.15464],[4.4006,51.1553],[4.40141,51.15582],[4.40125,51.15624],[4.40514,51.15666],[4.40552,51.15724],[4.40638,51.15736],[4.40758,51.15839],[4.40881,51.15864],[4.4119,51.16009],[4.41631,51.16305],[4.41638,51.16475],[4.41605,51.16525],[4.41706,51.16711],[4.41952,51.16788],[4.42285,51.16806],[4.42502,51.17006],[4.42628,51.17063],[4.42858,51.17081],[4.43199,51.17031],[4.43134,51.17174],[4.43514,51.17396],[4.43494,51.17486],[4.43418,51.17527],[4.43405,51.17646],[4.43347,51.17653],[4.43269,51.17735],[4.42998,51.17821],[4.42815,51.17971],[4.4269,51.17924],[4.4262,51.17958],[4.42436,51.1795],[4.42389,51.18021],[4.42228,51.18037],[4.42123,51.17937],[4.41839,51.17546],[4.41371,51.17563],[4.4055,51.17691],[4.40075,51.17839],[4.39944,51.17911],[4.39811,51.18051],[4.39687,51.18217],[4.39626,51.18377],[4.39473,51.18397],[4.3918,51.18135],[4.39034,51.18216],[4.39021,51.18179],[4.38935,51.18185],[4.38642,51.1795],[4.38511,51.18021],[4.38534,51.18039],[4.38422,51.18115],[4.38441,51.18147],[4.38357,51.1811],[4.38247,51.18154],[4.37951,51.18364]]]}}]}
