{"type":"FeatureCollection","features":[{"type":"Feature","geometry":{"type":"Polygon","coordinates":[[[4.3550542722124019,51.313411177069838],[4.3548684564161286,51.313628685272533],[4.3541103914140225,51.313582103290393],[4.3530806273338882,51.313566724878868],[4.3530764395536812,51.313566661433107],[4.3530749193045271,51.313566724157219],[4.3518932687802936,51.313614780728265],[4.3518889661756512,51.313614968890185],[4.3518875607450553,51.313614779949411],[4.3509480584854918,51.313497147251326],[4.3502956304855251,51.313177130625121],[4.3491328208952238,51.312652830402435],[4.3476516730437043,51.312000114837154],[4.3467125154485426,51.311569367598729],[4.3457646233888374,51.311176522817107],[4.3450671245174535,51.311047024405916],[4.3450614167973045,51.31104702329818],[4.3440108099973749,51.311072817166],[4.3425106533821802,51.311230333471279],[4.3425078280302323,51.311230629467879],[4.3425049456347828,51.311230341228409],[4.3416503255314041,51.311142385441094],[4.3411944341487985,51.310950873266307],[4.3407184423547207,51.310658643480288],[4.3404374437284448,51.310301725351941],[4.340677097253967,51.310098578894326],[4.3410070997733907,51.309812852304859],[4.3411506244835136,51.309607993104784],[4.3412554032035757,51.309372493631294],[4.3415236932830483,51.309232394146342],[4.3417633106207631,51.309075156432932],[4.3418638128367757,51.308862979452257],[4.3417693694536315,51.308656241990192],[4.3415570621616961,51.308479237619999],[4.3411728612020166,51.30835148453729],[4.3405950212140976,51.30830725653135],[4.3405893138406881,51.30830723723205],[4.3399352612061763,51.308303614380733],[4.339929553833489,51.308303595049608],[4.3392458110684151,51.308124514237008],[4.3387669222590217,51.307875391321495],[4.3383297075914893,51.307630788919575],[4.3379341080358689,51.307480696053268],[4.3372945035629042,51.307352865114439],[4.3360814628560709,51.307314776019503],[4.3350203569927661,51.307253383934835],[4.333924842651399,51.307068817856852],[4.3327061731159233,51.306789830163687],[4.3314102353689306,51.306482871079048],[4.329563573561388,51.305937661876939],[4.3279565611768556,51.305529016072718],[4.3266362748308724,51.30521678324596],[4.3252901205093455,51.30479920397314],[4.3239927725756724,51.304441020745159],[4.3229218100698565,51.304232920862709],[4.3214910884795961,51.303974516877631],[4.3200874391480708,51.303772569705096],[4.318463186905781,51.303503103063662],[4.3173707244165787,51.303330177196493],[4.3168188555639988,51.303177142252864],[4.3161868256750466,51.30298362324681],[4.3157139113808229,51.302755063787622],[4.3152899299611063,51.302445622410396],[4.3150253482498089,51.301850609327616],[4.3148227260722214,51.300956202888429],[4.3145553838393775,51.300243218325285],[4.3142195223810686,51.299314613169152],[4.3137604674787688,51.298380629324114],[4.3133038611922272,51.297672048294984],[4.31306919496524,51.297210867462418],[4.3126773056591619,51.296531237445009],[4.3126185114127367,51.296435019136325],[4.3124983962018435,51.296282164894507],[4.3095336644627018,51.292115451879944],[4.3173458245259857,51.28825580954895],[4.3194998813900334,51.285628469693123],[4.3195009852556536,51.282288361847563],[4.3170220895615108,51.277560581537024],[4.3080225650364321,51.269559522488478],[4.3018948616911539,51.264024030220497],[4.3007913087610827,51.262373041729496],[4.3008357719698651,51.261472894447785],[4.3010910283779911,51.260177194597375],[4.301674243537275,51.258979838675295],[4.3028698612465401,51.257118522994674],[4.3034897491046884,51.256375084211669],[4.3043407123321646,51.255542881663601],[4.3049974267004494,51.25500981578633],[4.3061166798040951,51.254346119983147],[4.3067954532839252,51.254023605695053],[4.3077053800399083,51.25372478184206],[4.3090777238542799,51.253379290543343],[4.3100319706020338,51.253239320583631],[4.3113592613757925,51.253108924003556],[4.3131336763023986,51.252997560350181],[4.3152286736334755,51.25278798193191],[4.3168390151514675,51.252685756247992],[4.318225681591179,51.252677072481355],[4.3193590605182655,51.252611956944051],[4.3206115841392361,51.252453481217167],[4.3222070627485918,51.252192048070341],[4.3243919139643783,51.251785876392546],[4.3258383600254859,51.251449619571162],[4.3280903526237289,51.250701848774668],[4.3299395993300731,51.250047437925041],[4.3327209723294544,51.248939650256041],[4.3352413646087236,51.247724017949487],[4.3361511012722254,51.247256444152541],[4.3384999198605874,51.246017244792071],[4.3412439191458398,51.244530191068897],[4.3446958093485692,51.242795335204676],[4.3471409805391117,51.241738542787587],[4.3496231247109671,51.240798553279653],[4.3515313825153656,51.240237478942142],[4.3522693469614948,51.23999897584936],[4.3490654602758605,51.238187789378856],[4.3484707206885558,51.237819350792648],[4.3483876317328702,51.237782673619883],[4.3481099632521465,51.237660098245215],[4.3477918402319782,51.237519655481115],[4.3456821211581778,51.236606357544538],[4.3451845152851636,51.236390919918449],[4.3452888376706174,51.236183354516669],[4.3454414857525787,51.235879677019213],[4.3455668732568888,51.235630211741821],[4.3455841427717514,51.235595861610008],[4.3456369543796081,51.23549078901133],[4.345692990321651,51.235379290334741],[4.345704512764204,51.23535637225779],[4.3455296652477822,51.235266518645766],[4.3453543440131961,51.235239376301038],[4.3452196677760737,51.235218533386558],[4.3448189336783756,51.235211776994589],[4.3445885688935677,51.235198653478683],[4.3442203908813308,51.235280886039781],[4.3441294917216631,51.235301190311816],[4.3439504142697061,51.235312685981548],[4.3438399924563784,51.235319737243387],[4.3438186726758277,51.235321108091384],[4.3436458914170757,51.235284508005961],[4.3434372366564533,51.235181674145679],[4.3430941004034356,51.234939330594941],[4.3430276340518725,51.234866960433408],[4.3429674066989428,51.234801386739292],[4.3428180624787691,51.23463879188575],[4.3427690396781893,51.234585426638574],[4.3426835152380479,51.234359944833351],[4.3426230882742161,51.234242454259153],[4.3426232138083627,51.234012388737511],[4.3426232466973609,51.233952112933579],[4.342623254215817,51.2339383338091],[4.342473973699188,51.233719066986573],[4.3424172133100294,51.233653601591989],[4.3423698105885675,51.233598888258093],[4.3422416225788565,51.233532706149859],[4.3416467545358719,51.233338282795408],[4.3415413817619131,51.233311213293909],[4.3413219445351885,51.233259831465141],[4.3411070869063737,51.233138215356547],[4.3410955368477939,51.233131660221531],[4.340964411079927,51.233050932906067],[4.3408681923570525,51.232991704603414],[4.3408336564342038,51.232923870613625],[4.3407940264038238,51.232704671711332],[4.3407451542855418,51.2326214733],[4.3406955100177287,51.232536935423575],[4.3406898614997145,51.232525626777743],[4.3406632062387764,51.232472283762569],[4.3405200252220411,51.23232409560061],[4.3404805207473585,51.232283225372427],[4.34031756807659,51.232089290643238],[4.3402132447506672,51.231965119071774],[4.3401520871888088,51.231720468785198],[4.3402160179551004,51.23144484714004],[4.3402997592214456,51.231390127775214],[4.3403170277211416,51.231289192657222],[4.3403293253362376,51.231217378622731],[4.3403337645776068,51.23119138535408],[4.3403253978239755,51.231177325612201],[4.3403050172874735,51.231143084203978],[4.3402102718860762,51.231046041673622],[4.3401867892861867,51.231028302125331],[4.340036878929193,51.230914923591818],[4.3399009836148954,51.230827506560708],[4.3397248609962551,51.230738452847987],[4.3395546267585496,51.230713559147787],[4.3394115136604769,51.230679045249495],[4.3392700357375631,51.2306398216788],[4.3387971613321463,51.230470041478021],[4.3385270819072019,51.230340676883387],[4.338429258250696,51.23027499249207],[4.3383489725326942,51.230208692228707],[4.3383445511724155,51.230205041846169],[4.3383384296595375,51.23019595308201],[4.33829653743246,51.23013371617084],[4.3382630838048968,51.230084011135745],[4.3381586185517653,51.229928800825505],[4.3381186513986512,51.229834547809567],[4.3400312672208852,51.229747595800383],[4.3405360564352184,51.229953727454586],[4.3407708439010602,51.230020142884307],[4.3412930514488952,51.230045312766933],[4.3413707103277606,51.229955590584339],[4.3414080791963672,51.229873553307215],[4.3414221438867457,51.229762226707173],[4.3414109953276556,51.229680780705266],[4.3413970304515024,51.229617571439206],[4.3413914473809658,51.229592276946505],[4.3413948273271012,51.229489738540202],[4.3413709645223344,51.22941151647855],[4.3412557777404954,51.229214222955918],[4.3412445500093471,51.229096931331775],[4.3412324811738774,51.229048247648123],[4.341220897940743,51.229001577464715],[4.3412209871901073,51.228871408078241],[4.3412301280716417,51.228709206226732],[4.3412314731616712,51.228685342438013],[4.3412324712093557,51.228667500771103],[4.3412563207303112,51.22856855332833],[4.3412481915308589,51.228540040408461],[4.3412473914480563,51.22853727181225],[4.3412298472317499,51.228475805428076],[4.3412264326980141,51.228463823169427],[4.3412276216904369,51.228412688658032],[4.3412300433020317,51.228309224190092],[4.3412304248528883,51.228292982308901],[4.3412272242844621,51.228282357340397],[4.3413033967107495,51.228233513868773],[4.3413260718221851,51.228084923409632],[4.3413441158005392,51.227748861618942],[4.3413490511367874,51.227555019697846],[4.3413574082901718,51.22751025953535],[4.3413701019164197,51.2274423193603],[4.3414459324077059,51.227312715253071],[4.3415349903352745,51.227207211863615],[4.3418012654616778,51.226855313871788],[4.3418197503581846,51.226822609311391],[4.3418828660232114,51.226694422232846],[4.3419139487401957,51.22655836321556],[4.3419609708928197,51.226460858808686],[4.3420117634591469,51.226404261270119],[4.3421231388814219,51.226343892908218],[4.3422027290061163,51.226268273222772],[4.3422724735291212,51.226134901069386],[4.3423536330138806,51.225963906037826],[4.3423794115929972,51.225916354178239],[4.3423658226788833,51.225845954318999],[4.3423847944217684,51.225785547608531],[4.3424226964280619,51.225739903902031],[4.3425181853445149,51.225644306285751],[4.3427260845846476,51.225527304448171],[4.3428406800267121,51.225462801429529],[4.3423419380883219,51.225418372362533],[4.3424454035568267,51.225289816170132],[4.3424883323594115,51.225239014197292],[4.3425402407915632,51.225180043716108],[4.3425561665540613,51.22516553991985],[4.3426562092824863,51.225064010827253],[4.3427079151201227,51.225008320980891],[4.3427265651387676,51.224985341709626],[4.3428258467917908,51.224886859361774],[4.3430228814430301,51.22462866528101],[4.3432749622744469,51.224298359678045],[4.343315200755975,51.224242685122476],[4.3433333514089405,51.224215481107926],[4.3433492529063056,51.224191656249424],[4.3434378658185588,51.224042009294131],[4.3434921507698485,51.22395038409298],[4.3435184980814388,51.223905798230149],[4.3435502206188028,51.223847029817065],[4.3436051124497794,51.223743710804833],[4.3436540917109694,51.223668874709638],[4.3437431586007147,51.223550704886726],[4.3437791486190775,51.223514794725659],[4.3438250050504577,51.223471048710337],[4.3439091027326224,51.223410906703045],[4.3439727500660341,51.223369528204145],[4.3439988940004959,51.22335693182049],[4.3440375390882187,51.223334594569387],[4.3442447598055098,51.223229274712743],[4.3443830150395071,51.223180082114219],[4.3448431634493376,51.223186348366873],[4.3448890005828522,51.2231499724003],[4.3450144226262912,51.223027997641772],[4.3452511850549502,51.22289057527103],[4.3453312676994216,51.222545526772421],[4.3453320880018342,51.222418997489548],[4.3452095953347536,51.222001130966682],[4.3451563228719214,51.221733105048365],[4.3451889504360919,51.221602069713626],[4.3454114968692537,51.221248024116335],[4.3454936383708542,51.22113597262851],[4.3455991877647948,51.221011440658913],[4.3457577449138318,51.220843900179396],[4.3459434904365528,51.220657965335718],[4.3459912619394307,51.220610111097209],[4.3460263627652251,51.220569490130323],[4.3460491376416179,51.220533639692704],[4.3460634105957396,51.220497518017332],[4.3460691089199184,51.22046358791205],[4.3460615934388027,51.220374853144563],[4.3460431423254526,51.220317404919001],[4.3460031890933779,51.220237967081104],[4.3459369104683647,51.220136421855521],[4.3465116224931748,51.219671181049868],[4.3466972055735651,51.219573133400083],[4.3482687518126211,51.218780756487938],[4.348334350169635,51.218603120823808],[4.3484662664550111,51.217144811264077],[4.3484694010733351,51.217110116560157],[4.3449208791045519,51.215907240628653],[4.3453826820002739,51.21566001414989],[4.3454892086690666,51.215620332748159],[4.3456193232412197,51.215605221040896],[4.3457034076795669,51.215568141821294],[4.3453847776175447,51.215529700651508],[4.345932583959951,51.215228063651018],[4.3459959147515477,51.215193101596171],[4.3462572391764649,51.215048787270483],[4.3463965542756418,51.214971863123687],[4.3464097964024999,51.214963191736047],[4.3464166823073018,51.214958680816189],[4.3464968220728961,51.214906275066021],[4.3465732395701977,51.21485629545424],[4.3466422699918912,51.214811159206143],[4.3467392731148715,51.214747727565438],[4.346751170077785,51.21473854355699],[4.3469423941215002,51.214590979210008],[4.3474309355080916,51.214213938765539],[4.347498408791572,51.214158447086255],[4.3475080093994842,51.21416347327682],[4.3475246208772491,51.214172194921169],[4.3475345791841651,51.214177418916719],[4.3475535228670044,51.214187354397176],[4.3476006674980718,51.214212062715774],[4.3476077642425865,51.214215767168596],[4.3478814661887908,51.214018006250178],[4.348884012489691,51.213167941216476],[4.3492382857443701,51.212867524447645],[4.3492716834031082,51.212841391449551],[4.3499642075302152,51.212299569910954],[4.3502458196602003,51.211530986086558],[4.350341111273945,51.211270911490111],[4.3504114441864434,51.211125803960549],[4.3504751458714752,51.210994357795215],[4.3504785973191087,51.210987248467305],[4.3504839238942807,51.210978845085414],[4.3504842675398008,51.21097831481962],[4.3505917151824667,51.210808395645515],[4.3507131267568804,51.210643781581609],[4.3507619488540934,51.210577597991254],[4.3510014263774037,51.210270606227311],[4.3510017413489965,51.210270192805261],[4.351002471498429,51.210269267103008],[4.3511191524657926,51.210119698527706],[4.3511879292184537,51.210032206051174],[4.3512702347775383,51.209927511608484],[4.3512869564022756,51.209906247368544],[4.3512870279841662,51.209906157494423],[4.3512936135551952,51.209897772228025],[4.3513043508838498,51.20988412932104],[4.3513408720957312,51.209837655344906],[4.3513516093999396,51.209824003444858],[4.351362890724058,51.209809650523447],[4.3513765342407096,51.2097923047886],[4.3514828760394986,51.209657034953004],[4.3514990963936109,51.209636426765691],[4.3516161889563705,51.209487459945706],[4.3517941956908013,51.209261039132905],[4.3518428988571038,51.209199088593898],[4.3519262179059011,51.209093108454844],[4.3519447713750479,51.209069507373776],[4.3519762809614164,51.20902876712065],[4.3524131862458066,51.208463929952856],[4.3526042641467377,51.208193852751691],[4.3527395935374349,51.208002605537239],[4.3530080133658648,51.207630608806014],[4.3531209762419989,51.207433192198152],[4.3531238396687533,51.207428203979276],[4.353161867618681,51.207356633879797],[4.3538402070200597,51.206085743569957],[4.3554514107485192,51.204083867850223],[4.3556481439238492,51.203828032564722],[4.3557908278204387,51.203649204341872],[4.3572525425760933,51.201811253956961],[4.3554264217513889,51.201468100459451],[4.3539674043606027,51.201136773867724],[4.3522073180397634,51.200710722796273],[4.3481083310993363,51.199689911871815],[4.3467810982576642,51.19929937441465],[4.3448189488599249,51.198651422039894],[4.3430589679028326,51.197959085817175],[4.3418074923401608,51.197414733507379],[4.3395893358875774,51.196241736855789],[4.3411039682752817,51.194780107519676],[4.3422874488151981,51.193681961335876],[4.342445083562807,51.193535797950531],[4.3424464432225109,51.193534530869229],[4.3424507769065732,51.193535799184453],[4.3458219262507809,51.194520423624205],[4.3458605876178336,51.194532097938158],[4.3491088150379626,51.195506079548281],[4.3487910778057808,51.195778360975531],[4.3491904132758243,51.195931220477981],[4.3501656987733108,51.196304564580885],[4.3501700184706573,51.196306219113715],[4.3501713924552412,51.196304565442816],[4.3510662375088947,51.195224678397231],[4.3510674253811219,51.195223240411877],[4.3510719310590522,51.195224679215798],[4.3525678887903485,51.195702163826134],[4.3525720226553046,51.195703485673668],[4.352573582398799,51.195702164572346],[4.3536769562922322,51.194770226014775],[4.353859238284544,51.194427005044034],[4.3538290026810893,51.193893040774135],[4.3537988347799956,51.193139829323151],[4.3537838213705431,51.192510480809247],[4.3539358179595036,51.191766854610989],[4.3548466208737935,51.190899283104834],[4.3558179572594407,51.190012619019484],[4.3573025725255059,51.188794426798026],[4.3573051762408701,51.188792296760951],[4.3573082652911284,51.188794427316125],[4.3589534246470025,51.189929893496654],[4.3604489998892815,51.190101194133113],[4.3604546928143666,51.190101194499618],[4.3619481053344593,51.18895826813506],[4.3619501938521816,51.188956668290494],[4.3619537981212835,51.188958259440831],[4.3647964983371326,51.190218819818433],[4.3661439419992991,51.190794112828421],[4.3669322155054697,51.19112838695726],[4.3694980190602424,51.191965975860029],[4.3695040841889181,51.191967962241634],[4.3695037122128824,51.191965975790552],[4.3691551424483572,51.190137253236692],[4.3701262336643012,51.189889364543902],[4.3708241868852005,51.189422092347634],[4.3723869723759261,51.188344549282903],[4.3734641134788239,51.187629496649279],[4.3751329300403574,51.186532811049695],[4.3776661799493812,51.184825939131436],[4.3780205601379549,51.184624504195355],[4.378419631449157,51.184359308746409],[4.3795057396581463,51.183637466749758],[4.3804988828399782,51.183025023645186],[4.3806595204149064,51.182923885793855],[4.3804608360010384,51.182793150840865],[4.3807889807064306,51.18261634772491],[4.3807919549871803,51.182614738459442],[4.3807946727182632,51.182616347111434],[4.3809402431493654,51.18270213573215],[4.3809432612682464,51.182703906141242],[4.3809459351717699,51.182702135111384],[4.3812459968380741,51.182501631053476],[4.3811324398781011,51.182388720900008],[4.3824637589268782,51.181539762012299],[4.3824660180736776,51.181538323573136],[4.3824694508074851,51.181539761318142],[4.3826613981865981,51.181620194015927],[4.3826647022044298,51.181621577840005],[4.3826670900770139,51.181620193312241],[4.3834373638629609,51.181171307566864],[4.3834401663383504,51.181169671290625],[4.3835728851409499,51.181097601925089],[4.3838327251022626,51.181278012139359],[4.3839198047771921,51.181236248786639],[4.3839226216414318,51.181234909118338],[4.3839254966206491,51.18123624802233],[4.3844115144316538,51.181465191352274],[4.3844147613329056,51.181466709963225],[4.3844172062968338,51.181465172587217],[4.3845566118651602,51.181377515098724],[4.384215994511,51.181151725510858],[4.385341251230134,51.180390480824599],[4.3851141578146491,51.180206249020102],[4.3864164965243466,51.179498953226535],[4.386778932734015,51.179825404681232],[4.388747240160531,51.181222369798412],[4.3893528623833138,51.181846533098465],[4.3893582252194632,51.181846199556418],[4.390208012056843,51.181793217746524],[4.3902137039682128,51.18179321667926],[4.3903358367799346,51.18215237503879],[4.3903368965635297,51.182155475878737],[4.3903415287351057,51.182152373965337],[4.3907718318594267,51.181864111030769],[4.3910081999291375,51.181768840946447],[4.3915284679472943,51.181459614442097],[4.3917991355770543,51.181353891276267],[4.3918025957739539,51.181352551290807],[4.3918048274348038,51.181353890132328],[4.392158233455568,51.181567628576822],[4.3941592383537875,51.18349833301302],[4.3947271203131901,51.183973896425492],[4.3947320398201271,51.183973257130326],[4.3962595382181409,51.183771433811295],[4.3963351116093596,51.183468206127706],[4.3963823852066248,51.183289826670119],[4.3965901057236847,51.182778419881942],[4.3968735319434851,51.18217189563407],[4.3972611151224239,51.18162476799165],[4.3981117620562236,51.180506885494736],[4.3994446091656796,51.179109254026535],[4.4007494657082358,51.178389520868372],[4.4018653283299685,51.178074050788659],[4.4027258885404166,51.177889536392527],[4.404276887041239,51.177460991968317],[4.4054966301693188,51.176907681737276],[4.4101115257485972,51.176252212630018],[4.4122989984244763,51.175867566890375],[4.4137054789850128,51.17563235884586],[4.413710869900819,51.175632401705258],[4.4150154871045526,51.175643737196765],[4.4150211782649853,51.175643734934262],[4.4183817531324197,51.175458418463862],[4.4183874442701931,51.17545841603917],[4.4189271739636302,51.17620702945635],[4.4193725303665117,51.176866793557316],[4.4199502655477172,51.177621587490691],[4.4205093387102812,51.178435917750129],[4.4212272067141205,51.179372939136826],[4.4222752040870477,51.180366666230178],[4.422267217880461,51.180804447181352],[4.4222616392233638,51.181000363682095],[4.4224359699205129,51.181995349270977],[4.4223539024716141,51.18289956941306],[4.4224905017643099,51.18352871190438],[4.4196228419247205,51.185831057930699],[4.4193069079326133,51.186086522999872],[4.4179206257834576,51.187088346022492],[4.4168598478371255,51.187605627948017],[4.4161411996274733,51.188336669869855],[4.4156712483181675,51.188825043615246],[4.4151367716525964,51.189378041456621],[4.4137718496941618,51.190473349211963],[4.4119191668242079,51.191561658945538],[4.4121707076841741,51.192847763975628],[4.4121421420409384,51.193136260062843],[4.4114846339868858,51.194638281099884],[4.4111023696652172,51.195552998562519],[4.4103686343949589,51.197392098358712],[4.4105991524224724,51.198181284023526],[4.4106048319935187,51.198181246025129],[4.4114672360143397,51.198171512492401],[4.4114727152701629,51.198171447560412],[4.4125607368532087,51.19846949591193],[4.4139709775493765,51.198863604032148],[4.4151817487828504,51.199171261012253],[4.4164692197708213,51.199478730349846],[4.4185379878237114,51.19978599832222],[4.4193656983933591,51.199920342981052],[4.4208983186820232,51.200121908079922],[4.4223541466539968,51.200207888004883],[4.4235963154138442,51.201083272148303],[4.4246076949218995,51.201121406981628],[4.4255551425540647,51.201303262751587],[4.425558018989614,51.201303809648124],[4.4255608368445278,51.201303259981287],[4.4263201794713716,51.201153158372442],[4.4263393607205597,51.201149364774608],[4.4273504868470184,51.200985235950732],[4.4279322584015954,51.200705743140119],[4.4281773079727236,51.20057079184523],[4.4286981235688607,51.200358730675724],[4.429479553360733,51.200291066499702],[4.4303038347078498,51.200194629492891],[4.4303067671709888,51.200194286386889],[4.4303095288626917,51.200194626493833],[4.4313182645114733,51.200318877681248],[4.430128947277991,51.201625081948286],[4.4298006775091174,51.202229314063459],[4.4297402069394289,51.202992375433595],[4.4297996682046961,51.203661139055541],[4.4304474238653366,51.20440234590707],[4.431159308418219,51.204936780555187],[4.4319841759067806,51.205513422413212],[4.4324352178753745,51.205746886124558],[4.4329721776917888,51.206024245434882],[4.4347803314430321,51.206727015533879],[4.4366437149629689,51.207438938928028],[4.4366460057211761,51.207439818465666],[4.4366494100017793,51.207438935623493],[4.4386073484929005,51.206664849448522],[4.4401763399368344,51.2062604294522],[4.444324379770193,51.205485376990232],[4.4443301723486393,51.205483917124475],[4.4443300745699013,51.205485373315653],[4.4443212376306773,51.205620160745035],[4.4440540104712971,51.206437040761543],[4.444053611830328,51.206438272434347],[4.4440484009984189,51.206436792691555],[4.4434441609801487,51.206264898137405],[4.4434422999814629,51.206264369006234],[4.4434388383023578,51.206265018381664],[4.4429358332257314,51.206358098809993],[4.4427315623603887,51.206546985300243],[4.4426018743004825,51.206820369679669],[4.4425381097171099,51.207212251898916],[4.4422650009616653,51.207415634279172],[4.4416771558587502,51.20752654166003],[4.4424307726983185,51.208178567466057],[4.4387309868568137,51.208531395284254],[4.437167221117849,51.208678939185809],[4.4358580800017018,51.208803701722566],[4.431840541212507,51.209203262360106],[4.4282696396401828,51.209921405089311],[4.4271386822945997,51.210179781799567],[4.4272171933005575,51.210297625747785],[4.4273413278114706,51.210473817604203],[4.4276192881560297,51.210945435359271],[4.427481928359132,51.211038498719489],[4.427542017815318,51.211162454811756],[4.4276302565077135,51.211253184463388],[4.4276832180403813,51.211319582207281],[4.4277327160298672,51.211430258642984],[4.4276781433057204,51.211670861290116],[4.427654859143578,51.211994797743046],[4.4276417292743835,51.212325281590466],[4.4275051483184535,51.212886560216049],[4.4276089761000579,51.21315768849319],[4.42766922022928,51.213243506493548],[4.4277405724273855,51.213465502335296],[4.4277848537651083,51.213557314608551],[4.4277380599732279,51.213861820775634],[4.4275283805772458,51.214271474491099],[4.4274992882690096,51.214318318749818],[4.4273700385017118,51.214427116483947],[4.4273720147246181,51.214551883633405],[4.4273655276480879,51.214616225935487],[4.4273271711126689,51.214659614254195],[4.4272246864996445,51.214771706128211],[4.4270443407647768,51.214822158310191],[4.42677679712029,51.215101561388011],[4.4267495413952638,51.215164529740278],[4.426788009296482,51.215322454957779],[4.4267007457307335,51.215488469233669],[4.4267026511103875,51.215558290240963],[4.426506012505385,51.215698022527484],[4.4272957872160079,51.216226408407955],[4.4277317609279399,51.216544369708465],[4.4278652803105691,51.21664731834278],[4.4278667559075133,51.21664845912364],[4.427870976474547,51.216647315461209],[4.4280904740198892,51.216587629069586],[4.4280944799660888,51.216586539438531],[4.4280961701765627,51.216587626177166],[4.4284319066618787,51.216802691530326],[4.4284369725923307,51.216802284465146],[4.4285838558187258,51.216790407588029],[4.428589552000135,51.216790404671819],[4.4286688545844566,51.216823180705163],[4.4287837952919098,51.216922686268482],[4.4288641275119813,51.21703137769159],[4.429021011809974,51.217148047263066],[4.4290520499442598,51.217188083575671],[4.4291214757385298,51.21731739084457],[4.4292163387137249,51.217395163393931],[4.4293360211789192,51.217419819528629],[4.4294635111167606,51.217428193492331],[4.4295091672934248,51.217450065517056],[4.4296005032035461,51.217511561593312],[4.4296113085666846,51.217565486374859],[4.4296207022154057,51.217612490820748],[4.4296753975152736,51.217672774497409],[4.4301944646847833,51.217986665403878],[4.4301974583917563,51.217988479487268],[4.4302001610122188,51.217986662410084],[4.4304555128299343,51.21780816211605],[4.4304572430096165,51.217806956757265],[4.4304612091355482,51.217808159109666],[4.430699678708085,51.217880830057254],[4.4308654784400394,51.217842316687154],[4.4310654786489962,51.217905488610285],[4.4311945550175436,51.21805898656222],[4.4314127388116615,51.218136682423356],[4.4315186004470037,51.218225853487581],[4.431540139948055,51.218267350350089],[4.4318488270659389,51.218347846095583],[4.4330985640541289,51.218582400587586],[4.4337380569646001,51.218963424765938],[4.4343980655209627,51.219200044340312],[4.4346963216172952,51.219264844741829],[4.4350340397075918,51.219270388516705],[4.4352987979884766,51.219310353454553],[4.4355301371598603,51.219390470059437],[4.4360447483095715,51.219680599296716],[4.436793387377393,51.219798633491088],[4.4373656219428952,51.219935408405036],[4.4375242697466115,51.219610510696043],[4.4375249118845046,51.219609207001547],[4.4375299662719163,51.219610507349095],[4.4380399311528924,51.21974176075296],[4.4379117364648337,51.220080321485803],[4.438195071025099,51.22016179532838],[4.4382649949146309,51.220240896627182],[4.4385330996266026,51.220510254065367],[4.4387912048844713,51.220969910062792],[4.4388887219174098,51.22110213381864],[4.4387894922057001,51.221246789437465],[4.438875202893068,51.221380107847359],[4.4392441424559257,51.22158407552206],[4.4396112725565429,51.222248428276906],[4.4398860752165143,51.222355987464454],[4.4405627570178883,51.223304136575166],[4.4408553559240369,51.223601310437104],[4.4413304769859492,51.224097580040457],[4.4417951339055977,51.224876898163117],[4.4417961816356186,51.224878650243205],[4.4423172178281289,51.225751949303714],[4.4432897937604316,51.226205247383241],[4.4428035466883431,51.226492212871285],[4.4430544710674047,51.226748222562762],[4.4428343440338551,51.22687067569737],[4.4426013195606053,51.227038941275076],[4.4426776459715525,51.227350681662607],[4.4426604766156634,51.227383122526383],[4.4426278604785905,51.227442061847917],[4.442625990596559,51.227445451641572],[4.442357892761847,51.227929904596913],[4.4422679356081964,51.228092479718264],[4.4421826273809613,51.228460256202993],[4.4422664817380442,51.229004799536902],[4.4422997130379205,51.229223303727139],[4.4427277977894422,51.230035492056466],[4.4427219563980564,51.230035226093776],[4.4416262655916094,51.229984328577117],[4.4416201531296275,51.229984646971864],[4.4416192236635403,51.22998533066523],[4.4387338863911987,51.232135882106107],[4.4359210554471433,51.233950083649532],[4.4338146152792977,51.235060506770026],[4.4320836291537624,51.235780793149509],[4.4317244167793017,51.23633195405457],[4.4316533969991205,51.236582074686432],[4.4310017628354315,51.236855461853665],[4.4305366626437594,51.236810784756294],[4.4291704474479223,51.236676673535086],[4.4289280822304367,51.236653024368721],[4.4289223836217664,51.236653027301223],[4.4280538316075608,51.237876342477669],[4.4277764679696618,51.238267475111414],[4.4262786533610416,51.240455907839575],[4.4253368521521965,51.240752982152415],[4.4252819128481864,51.241561112360685],[4.4251944611306442,51.242681044556299],[4.4251240884311764,51.243683275047793],[4.4250179399041976,51.244708963823307],[4.4249961978289054,51.245597000603844],[4.4248725911745623,51.246440126561943],[4.4248293327954933,51.247303023777597],[4.4248290638401615,51.248363642467517],[4.4248058673919575,51.249167260609873],[4.4248658163666397,51.250245826178237],[4.4249285417537658,51.25121471491763],[4.4250613718314122,51.252047882457894],[4.4251610827823056,51.25269851369432],[4.425297904746226,51.253311465866695],[4.4254363468717202,51.254143802654291],[4.4256131166925208,51.25465689304896],[4.4258446812043255,51.255321911957658],[4.4262986434844773,51.256453365752392],[4.4274912100829429,51.260376146050902],[4.4286114527862406,51.264053818118285],[4.4285158522810155,51.264043179982124],[4.4281124729318702,51.263997734111712],[4.4278509557017118,51.26400825692312],[4.4275878815438059,51.264011310716782],[4.4271451756104403,51.264032466165823],[4.4266054189252566,51.264051753514728],[4.4253803418303965,51.264086589395653],[4.4246677455206225,51.264115470033389],[4.4236549563449117,51.264150195308396],[4.4226148570068462,51.264183045966902],[4.4217445735430898,51.264219567655054],[4.4210047145804081,51.264265570170153],[4.4204013008132792,51.264311489815206],[4.4199646595422815,51.264342143243702],[4.4194764893390843,51.264389913077039],[4.4192035982118671,51.264418577947389],[4.4184728372469273,51.26448356181924],[4.4179664752048158,51.264550361254727],[4.417590519646768,51.264609490983709],[4.4170963057463579,51.264691516658793],[4.4166536337927083,51.264769699116769],[4.4162716179769275,51.264845958705237],[4.4158805170470252,51.264935523309781],[4.4155985540426137,51.264994617671384],[4.4153590550867534,51.265053694395945],[4.4150649731230258,51.265129905914662],[4.4147587753876243,51.265211846983206],[4.4144131496962933,51.265309001800347],[4.4139099125292507,51.265465215499432],[4.4133308668144542,51.265649993692136],[4.4129519380011422,51.265790911645595],[4.4125790709240533,51.265935655081314],[4.4122153028546416,51.266084168993366],[4.4119636822158492,51.266183196001236],[4.4116848028505702,51.266305053623697],[4.4113937992239878,51.266440235570855],[4.4110967387454654,51.266581144495809],[4.4108542318745911,51.266702986908044],[4.4104787875090787,51.2669119005105],[4.4100873655280131,51.267121807282273],[4.4098266828603991,51.267272209592271],[4.4096205805102429,51.267399753095965],[4.4093841674212939,51.267552024426493],[4.4089973946906165,51.267830622871948],[4.4087549250577602,51.267992413535666],[4.4085655135704274,51.268142303120818],[4.4084101866028931,51.26825887943226],[4.4082851602046951,51.268356435160655],[4.4081449927949867,51.268458750648534],[4.407944221416086,51.268632407900114],[4.4077964768497262,51.268756117469813],[4.4075995876570264,51.268931974924236],[4.4073911669343468,51.269129623302135],[4.4072396403833602,51.269274752320946],[4.4069290488833017,51.269600650488712],[4.4067699816792523,51.269779055714139],[4.406580591945997,51.269971752852477],[4.4064063757691843,51.270183463810419],[4.4062359563184712,51.270414192320047],[4.40611098443103,51.27057358452354],[4.4059935972963888,51.2707400748384],[4.4058686372037705,51.270916094944738],[4.405743705031016,51.271127789090698],[4.4056338989606809,51.271299058322342],[4.4055127341117428,51.27149409585008],[4.4053953901962757,51.271720060445304],[4.4052894014320803,51.271919865658688],[4.4051720610329825,51.27215294864839],[4.4050509732629974,51.272450262362604],[4.4049601811932781,51.27269999192805],[4.4048920779317067,51.272885511625759],[4.4048240203574025,51.273111442201383],[4.4047673422132236,51.273358788065906],[4.4046993132891821,51.273622783534343],[4.4043674926812884,51.273595327965388],[4.4039383554299345,51.273579172203533],[4.4037521752395872,51.273563894624282],[4.4032395830987143,51.273546925561952],[4.4028192665027754,51.273540416445776],[4.4025775855742779,51.273540037759716],[4.4023880209312818,51.273539715383009],[4.4023080275112738,51.273667433878231],[4.4020663401895819,51.274110549743632],[4.4020175051070316,51.274209236174002],[4.401914446731177,51.274407140806915],[4.4017960615993825,51.274634477049631],[4.4016521032735065,51.274910931898361],[4.4016119092984143,51.274992349358492],[4.4015447289246703,51.275129384383391],[4.4014819839492345,51.275257358013157],[4.4014175613866371,51.275404458946028],[4.4014051838353376,51.275429494545016],[4.4013811996986272,51.275475628693819],[4.4013457663143987,51.275582643070365],[4.4012922804921111,51.275755051581569],[4.4012619075222865,51.275865264295341],[4.4012496214913925,51.275938575411018],[4.4012344565144064,51.276034061191496],[4.4012196475809731,51.276126526835306],[4.4012141449225437,51.27618713572933],[4.4012059056513726,51.276369229731614],[4.4012049944727742,51.27637760697737],[4.4011764916986085,51.276377965493992],[4.4011564867195538,51.276378195793583],[4.400297389743475,51.276387439035219],[4.3996053571102012,51.276399058450153],[4.3991356403126618,51.276403577915488],[4.397674499198855,51.276417614521129],[4.3970295946177922,51.276423823154794],[4.3965805558866977,51.276428129679509],[4.3959831125879401,51.276433431337082],[4.3954438930602846,51.276438213186196],[4.3949477932348238,51.276442623265154],[4.39482512606188,51.276443720658996],[4.3942677069225411,51.276448806862668],[4.3925604679171641,51.276463185117045],[4.3918203798453144,51.276469492893469],[4.3903357750402803,51.27648214034032],[4.3887281293660765,51.276495815369842],[4.3887284241517017,51.276514241100408],[4.3882086204028274,51.276518528204086],[4.3868790814196812,51.276529514895699],[4.3864752957011079,51.276532850103294],[4.3861852641076631,51.276535240786437],[4.3859918189399147,51.276536843182356],[4.3859070693394013,51.276537530104832],[4.3860382676243468,51.277103765911981],[4.3861317809348987,51.277600402720083],[4.3861448057471364,51.27766956479217],[4.3861488410195202,51.277691027954063],[4.3861527388867909,51.2777276721757],[4.3861758964158621,51.277946225251974],[4.3862281383247561,51.278439326779548],[4.3862926261424606,51.27905762261787],[4.3863499969074891,51.279612912259793],[4.3864147527569139,51.280284867082763],[4.3864805790318977,51.28097706287722],[4.3864907683848937,51.281084371048202],[4.3865022961864319,51.281205673584147],[4.3865135793984393,51.281324432499375],[4.3865158821106869,51.281348691207107],[4.3865210920005184,51.281403563162442],[4.386524459674936,51.281438904114417],[4.3865305475394054,51.28150312362493],[4.3865731562668611,51.281935573639352],[4.3865956974114626,51.282179652743032],[4.3866034304709522,51.282271834154194],[4.3866348809703686,51.282681482786614],[4.3866492732952107,51.28301138205881],[4.3866623282212167,51.283221945677084],[4.3867104810128081,51.283998614001838],[4.3867182128798898,51.284086498997198],[4.3867219517002054,51.284117228921012],[4.3867260351666557,51.284149594634734],[4.3867376829930533,51.284209391012674],[4.3867443008142191,51.284235374732702],[4.3867574336983335,51.284281239228001],[4.3867819756480522,51.284363117463869],[4.3867880321215313,51.28438309717955],[4.3869152078849583,51.284809960495231],[4.3869667947755353,51.284993058968134],[4.3870592991270616,51.285272288141989],[4.387091592078014,51.285343756754408],[4.3871535223682505,51.285476259128949],[4.3872381619218048,51.28562130524864],[4.3872710345312456,51.285672127921835],[4.3873005357367614,51.285715275250794],[4.3873353424157493,51.285763562930967],[4.3874034185684492,51.285851078451941],[4.3874825476396557,51.285942690715039],[4.3876017800675049,51.286064793105851],[4.3876675238838105,51.286125533148152],[4.3878039992726929,51.286245196680667],[4.3879575717519179,51.286356992546771],[4.3881093223191723,51.286463440568184],[4.3882682814528522,51.286565599813279],[4.388388024305014,51.286633718472572],[4.3884773281023941,51.28668047743249],[4.3886676024351114,51.286771071969333],[4.3889057698996847,51.286870547052864],[4.38897188761797,51.286895792089261],[4.3890899581298637,51.286938401961677],[4.3893132798670234,51.287011157092415],[4.3895419877965303,51.28707535410652],[4.3896720659230253,51.287107301273686],[4.3898780751505893,51.287151233505845],[4.3901348402184146,51.287195084021434],[4.3903130049181431,51.287219435511858],[4.390473392820641,51.287237084943058],[4.3905531345967796,51.287244440101034],[4.3907665848920407,51.287259894922741],[4.3909595343816799,51.287267668461041],[4.3911536851920339,51.287269850823357],[4.3912681111475065,51.287270178987029],[4.3915139454651548,51.287264854502268],[4.392046251076958,51.287256469777049],[4.3923805818361279,51.287252060298876],[4.3929509432600682,51.28724405916185],[4.3933418769351862,51.287238565466915],[4.3940432610920706,51.287228724401103],[4.3945124127229773,51.287222140061097],[4.3949463671875622,51.287226725138595],[4.395283586335049,51.287235663194245],[4.395566566831973,51.287244343258081],[4.3957996223243692,51.287251497379771],[4.3961475357966053,51.287262183157651],[4.3965239308013517,51.287273427322923],[4.3971618920138136,51.287292488895133],[4.3976328916259328,51.287306465605752],[4.3982990342628598,51.287326233060995],[4.3988296207341691,51.287341663834454],[4.3996171589238129,51.28736487067733],[4.3999091162970467,51.287377016383182],[4.4001027713799346,51.287386563474179],[4.4004288482452703,51.287405853224676],[4.4006266353897452,51.287420719311953],[4.4007990660737395,51.287435286485717],[4.4009572620300812,51.287447826043099],[4.401133432000023,51.287459542448453],[4.4011837308307067,51.287461973163687],[4.4013783897487491,51.287471320148278],[4.4015016357185628,51.287477478235921],[4.4016737617310735,51.287486300796303],[4.4017727689733075,51.28749186327456],[4.401945483997534,51.287502366055598],[4.4021198484217914,51.287514153415124],[4.4022628929564114,51.287524978849525],[4.4024071425219296,51.287537062101997],[4.4024937100799795,51.287545099325548],[4.4026927633504025,51.287564671381546],[4.4028288018236834,51.287579336119585],[4.4029857697992378,51.287596789842894],[4.4031064706242455,51.287610550982208],[4.4033813602752101,51.287643392877008],[4.403645385158506,51.287676066624272],[4.4038301947715377,51.287699685713029],[4.4040618811755898,51.287729770722073],[4.4042832894798902,51.287758519188692],[4.4045937628731116,51.287798286224259],[4.4048410737273089,51.287827816609038],[4.4050528896478482,51.287851560218279],[4.4052496525747538,51.287871991551803],[4.4054373115873346,51.287889836846723],[4.4056830400100422,51.287911042949474],[4.4058137875390431,51.287921148948229],[4.4059961381108872,51.287932469656575],[4.4062460755520165,51.287946815287533],[4.4065322796276316,51.287963242850481],[4.4068431171912543,51.287971635242307],[4.4071525489674022,51.287978625131707],[4.4074067369274541,51.287984383231034],[4.4074546130671237,51.287985445889291],[4.4075756036149354,51.287983158536719],[4.4078469686981459,51.287978025313869],[4.4080477404074569,51.287974227599847],[4.4084298616200419,51.287967006288028],[4.408749581851592,51.287953594394978],[4.4090130004640793,51.287942556018912],[4.4090025435046867,51.287966566970624],[4.408975120729016,51.28802950245214],[4.4089563238635492,51.288072652040427],[4.4089286720615757,51.288136090923572],[4.4089013492269471,51.288198801645422],[4.4088726529979576,51.288264640706757],[4.40883714740656,51.288346130462614],[4.4087489980356116,51.288548465914232],[4.4087174259763318,51.288620894225041],[4.4086596748037454,51.288753444199308],[4.4086211928967822,51.288841747905664],[4.4085745709738395,51.288948767692013],[4.4085458165931817,51.289014732507333],[4.4085208531659097,51.289072022462626],[4.4084896523694059,51.289143623661019],[4.4084737157469256,51.289180192857081],[4.4084453902825498,51.289245204752326],[4.4084170933454141,51.28931014472424],[4.4083791398455983,51.289397243740495],[4.4083253781086071,51.289520624248119],[4.4082978104302555,51.289583874165928],[4.4082578679578557,51.289675557759857],[4.408221487534421,51.289759042946592],[4.4081802142578477,51.289853746973321],[4.4081515017165716,51.289919657724894],[4.4081238763282204,51.289983024456909],[4.4080704279882914,51.290105694649654],[4.4080290842007974,51.290169074977307],[4.4079512063945794,51.290288454704076],[4.4078728271296637,51.290408598533773],[4.4078003742775618,51.290519671287996],[4.4077302392444038,51.290625979504632],[4.4076579002389407,51.290736872360611],[4.4075292706645008,51.290935229499546],[4.4074210743233611,51.291057252463901],[4.4073256663367593,51.291164890070398],[4.4072109670440245,51.291294249303164],[4.4071162741322878,51.291401050597344],[4.4070363963799331,51.291482626237709],[4.4068247483659437,51.291698797356403],[4.4066160632456137,51.291911938112335],[4.4063890619132584,51.292149846707495],[4.406207696957833,51.292329452137047],[4.4060155682699698,51.292530901876397],[4.4058301971074654,51.292723594695737],[4.4056652455944993,51.292854640154538],[4.4054693053862239,51.293010322635375],[4.4051775630647825,51.293242110341431],[4.4048604024804794,51.293494119498931],[4.4045982388092728,51.293702401579452],[4.4044880152609753,51.293779994053068],[4.4043642039249997,51.293861221789548],[4.4042036359518812,51.293961722164568],[4.4040617950819252,51.294050505102533],[4.4038118017275645,51.294191802210577],[4.4036526642568532,51.294272572466156],[4.4031872288161642,51.294508865328062],[4.4026346984395586,51.294784972200965],[4.40236874703319,51.294915278406258],[4.4021293063905809,51.295032615516334],[4.4019752629195068,51.29510808802096],[4.4016278142083793,51.295248554452478],[4.4013466061070146,51.295362261607345],[4.4010237475150138,51.295492787467666],[4.4007373052089083,51.295608597839475],[4.4003620417351472,51.295756438452834],[4.3999834470547574,51.295900207149423],[4.3995813587425729,51.296052897091705],[4.3992428050488916,51.296181462824755],[4.3989958061267327,51.296272846840452],[4.3986047100573256,51.296407653213016],[4.3981268376304348,51.296572356834979],[4.397862301320286,51.296664533875926],[4.3975459915648987,51.2967747353999],[4.3970975067299971,51.296924390411391],[4.397434481587327,51.297070346130845],[4.3886229447188558,51.300121283563755],[4.3765148423849816,51.304336779336417],[4.3617029340707747,51.309483112888131],[4.3593806762439726,51.310386643257573],[4.3582574134154788,51.311023880934606],[4.3571644845882407,51.311642082874052],[4.3566483402838925,51.312013016244478],[4.355737476118918,51.312735870040989],[4.3550542722124019,51.313411177069838]]]},"properties":{"districtcode":3,"districtnaam":"ANTWERPEN","afkorting":"AN"}}]}